{"type": "FeatureCollection", "features": [ {"type": "Feature", "properties": {"norad_id": 44804, "name": "CARTOSAT-3", "group": "resource", "lat": 56.11188743133562, "lon": 47.66050774608323, "alt_km": 493.635620241741, "timestamp": "2025-12-25T11:37:44.079436+00:00", "meta": {"OBJECT_NAME": "CARTOSAT-3", "OBJECT_ID": "2019-081A", "EPOCH": "2025-12-25T05:03:26.252928", "MEAN_MOTION": 15.1925446, "ECCENTRICITY": 0.0013637, "INCLINATION": 97.4564, "RA_OF_ASC_NODE": 58.6344, "ARG_OF_PERICENTER": 44.2291, "MEAN_ANOMALY": 316.0031, "EPHEMERIS_TYPE": 0, "CLASSIFICATION_TYPE": "U", "NORAD_CAT_ID": 44804, "ELEMENT_SET_NO": 999, "REV_AT_EPOCH": 33705, "BSTAR": 0.00015683, "MEAN_MOTION_DOT": 3.244e-05, "MEAN_MOTION_DDOT": 0}, "tle": {"line1": "1 44804U 19081A   25359.21072052  .00003244  00000+0  15683-3 0  9990", "line2": "2 44804  97.4564  58.6344 0013637  44.2291 316.0031 15.19254460337058"}}, "geometry": {"type": "Point", "coordinates": [47.66050774608323, 56.11188743133562]}}, {"type": "Feature", "properties": {"norad_id": 44819, "name": "GAOFEN-12 01", "group": "resource", "lat": -15.20565209759901, "lon": -176.70763313126346, "alt_km": 630.4967626728776, "timestamp": "2025-12-25T11:37:44.079446+00:00", "meta": {"OBJECT_NAME": "GAOFEN-12 01", "OBJECT_ID": "2019-082A", "EPOCH": "2025-12-25T04:15:44.743680", "MEAN_MOTION": 14.80671342, "ECCENTRICITY": 0.0002218, "INCLINATION": 97.8125, "RA_OF_ASC_NODE": 5.1321, "ARG_OF_PERICENTER": 178.417, "MEAN_ANOMALY": 181.705, "EPHEMERIS_TYPE": 0, "CLASSIFICATION_TYPE": "U", "NORAD_CAT_ID": 44819, "ELEMENT_SET_NO": 999, "REV_AT_EPOCH": 32834, "BSTAR": 7.1775e-05, "MEAN_MOTION_DOT": 5.01e-06, "MEAN_MOTION_DDOT": 0}, "tle": {"line1": "1 44819U 19082A   25359.17760120  .00000501  00000+0  71775-4 0  9990", "line2": "2 44819  97.8125   5.1321 0002218 178.4170 181.7050 14.80671342328341"}}, "geometry": {"type": "Point", "coordinates": [-176.70763313126346, -15.20565209759901]}}, {"type": "Feature", "properties": {"norad_id": 44873, "name": "CSG-1", "group": "resource", "lat": 14.228023468025063, "lon": 178.6039423912857, "alt_km": 623.1383011363287, "timestamp": "2025-12-25T11:37:44.079456+00:00", "meta": {"OBJECT_NAME": "CSG-1", "OBJECT_ID": "2019-092A", "EPOCH": "2025-12-25T03:27:46.993824", "MEAN_MOTION": 14.8216069, "ECCENTRICITY": 0.0001472, "INCLINATION": 97.8805, "RA_OF_ASC_NODE": 180.2816, "ARG_OF_PERICENTER": 84.6197, "MEAN_ANOMALY": 275.5184, "EPHEMERIS_TYPE": 0, "CLASSIFICATION_TYPE": "U", "NORAD_CAT_ID": 44873, "ELEMENT_SET_NO": 999, "REV_AT_EPOCH": 32569, "BSTAR": 8.4394e-05, "MEAN_MOTION_DOT": 6.2e-06, "MEAN_MOTION_DDOT": 0}, "tle": {"line1": "1 44873U 19092A   25359.14429391  .00000620  00000+0  84394-4 0  9993", "line2": "2 44873  97.8805 180.2816 0001472  84.6197 275.5184 14.82160690325694"}}, "geometry": {"type": "Point", "coordinates": [178.6039423912857, 14.228023468025063]}}, {"type": "Feature", "properties": {"norad_id": 46277, "name": "NEMO-HD", "group": "resource", "lat": -36.25524900952498, "lon": 63.754383861481664, "alt_km": 450.77708689348674, "timestamp": "2025-12-25T11:37:44.079466+00:00", "meta": {"OBJECT_NAME": "NEMO-HD", "OBJECT_ID": "2020-061F", "EPOCH": "2025-12-25T03:59:35.073888", "MEAN_MOTION": 15.40578878, "ECCENTRICITY": 0.0001057, "INCLINATION": 97.2188, "RA_OF_ASC_NODE": 58.1065, "ARG_OF_PERICENTER": 52.8897, "MEAN_ANOMALY": 307.2446, "EPHEMERIS_TYPE": 0, "CLASSIFICATION_TYPE": "U", "NORAD_CAT_ID": 46277, "ELEMENT_SET_NO": 999, "REV_AT_EPOCH": 29515, "BSTAR": 0.00028495, "MEAN_MOTION_DOT": 0.00011509, "MEAN_MOTION_DDOT": 0}, "tle": {"line1": "1 46277U 20061F   25359.16637817  .00011509  00000+0  28495-3 0  9994", "line2": "2 46277  97.2188  58.1065 0001057  52.8897 307.2446 15.40578878295151"}}, "geometry": {"type": "Point", "coordinates": [63.754383861481664, -36.25524900952498]}}, {"type": "Feature", "properties": {"norad_id": 46984, "name": "SENTINEL-6A", "group": "resource", "lat": -3.7668635150707406, "lon": -42.485308236758165, "alt_km": 1339.5957828859682, "timestamp": "2025-12-25T11:37:44.079476+00:00", "meta": {"OBJECT_NAME": "SENTINEL-6A", "OBJECT_ID": "2020-086A", "EPOCH": "2025-12-24T15:55:56.858592", "MEAN_MOTION": 12.80930713, "ECCENTRICITY": 0.00077606, "INCLINATION": 66.0399, "RA_OF_ASC_NODE": 137.5413, "ARG_OF_PERICENTER": 269.4223, "MEAN_ANOMALY": 90.5903, "EPHEMERIS_TYPE": 0, "CLASSIFICATION_TYPE": "U", "NORAD_CAT_ID": 46984, "ELEMENT_SET_NO": 999, "REV_AT_EPOCH": 23797, "BSTAR": -9.062628e-06, "MEAN_MOTION_DOT": -6.3e-07, "MEAN_MOTION_DDOT": 0}, "tle": {"line1": "1 46984U 20086A   25358.66385253 -.00000063  00000+0 -90626-5 0  9996", "line2": "2 46984  66.0399 137.5413 0007760 269.4223  90.5903 12.80930713237976"}}, "geometry": {"type": "Point", "coordinates": [-42.485308236758165, -3.7668635150707406]}}, {"type": "Feature", "properties": {"norad_id": 48079, "name": "GAOFEN-12 02", "group": "resource", "lat": -27.375447114218073, "lon": 169.26136004043101, "alt_km": 634.6203833306554, "timestamp": "2025-12-25T11:37:44.079486+00:00", "meta": {"OBJECT_NAME": "GAOFEN-12 02", "OBJECT_ID": "2021-026A", "EPOCH": "2025-12-25T04:12:26.273376", "MEAN_MOTION": 14.80689363, "ECCENTRICITY": 0.000355, "INCLINATION": 97.9857, "RA_OF_ASC_NODE": 353.1221, "ARG_OF_PERICENTER": 76.204, "MEAN_ANOMALY": 283.9566, "EPHEMERIS_TYPE": 0, "CLASSIFICATION_TYPE": "U", "NORAD_CAT_ID": 48079, "ELEMENT_SET_NO": 999, "REV_AT_EPOCH": 25601, "BSTAR": 7.4237e-05, "MEAN_MOTION_DOT": 5.18e-06, "MEAN_MOTION_DDOT": 0}, "tle": {"line1": "1 48079U 21026A   25359.17530409  .00000518  00000+0  74237-4 0  9992", "line2": "2 48079  97.9857 353.1221 0003550  76.2040 283.9566 14.80689363256015"}}, "geometry": {"type": "Point", "coordinates": [169.26136004043101, -27.375447114218073]}}, {"type": "Feature", "properties": {"norad_id": 48268, "name": "PLEIADES NEO 3", "group": "resource", "lat": -39.88569775838777, "lon": 78.40158164299162, "alt_km": 631.1624008241097, "timestamp": "2025-12-25T11:37:44.079496+00:00", "meta": {"OBJECT_NAME": "PLEIADES NEO 3", "OBJECT_ID": "2021-034A", "EPOCH": "2025-12-25T05:19:39.186048", "MEAN_MOTION": 14.81672236, "ECCENTRICITY": 0.0001322, "INCLINATION": 97.8943, "RA_OF_ASC_NODE": 71.484, "ARG_OF_PERICENTER": 89.3525, "MEAN_ANOMALY": 270.784, "EPHEMERIS_TYPE": 0, "CLASSIFICATION_TYPE": "U", "NORAD_CAT_ID": 48268, "ELEMENT_SET_NO": 999, "REV_AT_EPOCH": 25189, "BSTAR": -2.731e-05, "MEAN_MOTION_DOT": -2.67e-06, "MEAN_MOTION_DDOT": 0}, "tle": {"line1": "1 48268U 21034A   25359.22198132 -.00000267  00000+0 -27310-4 0  9993", "line2": "2 48268  97.8943  71.4840 0001322  89.3525 270.7840 14.81672236251897"}}, "geometry": {"type": "Point", "coordinates": [78.40158164299162, -39.88569775838777]}}, {"type": "Feature", "properties": {"norad_id": 49070, "name": "PLEIADES NEO 4", "group": "resource", "lat": 39.60845452542541, "lon": -101.66776077319547, "alt_km": 620.4123996044527, "timestamp": "2025-12-25T11:37:44.079508+00:00", "meta": {"OBJECT_NAME": "PLEIADES NEO 4", "OBJECT_ID": "2021-073E", "EPOCH": "2025-12-25T04:31:00.651936", "MEAN_MOTION": 14.81674379, "ECCENTRICITY": 0.0001374, "INCLINATION": 97.8945, "RA_OF_ASC_NODE": 71.4467, "ARG_OF_PERICENTER": 90.1658, "MEAN_ANOMALY": 269.9712, "EPHEMERIS_TYPE": 0, "CLASSIFICATION_TYPE": "U", "NORAD_CAT_ID": 49070, "ELEMENT_SET_NO": 999, "REV_AT_EPOCH": 23560, "BSTAR": -2.8559e-05, "MEAN_MOTION_DOT": -2.77e-06, "MEAN_MOTION_DDOT": 0}, "tle": {"line1": "1 49070U 21073E   25359.18820199 -.00000277  00000+0 -28559-4 0  9995", "line2": "2 49070  97.8945  71.4467 0001374  90.1658 269.9712 14.81674379235609"}}, "geometry": {"type": "Point", "coordinates": [-101.66776077319547, 39.60845452542541]}}, {"type": "Feature", "properties": {"norad_id": 49260, "name": "LANDSAT 9", "group": "resource", "lat": 67.29593055746568, "lon": -92.41001015823406, "alt_km": 695.2097275234164, "timestamp": "2025-12-25T11:37:44.079518+00:00", "meta": {"OBJECT_NAME": "LANDSAT 9", "OBJECT_ID": "2021-088A", "EPOCH": "2025-12-25T04:31:41.450880", "MEAN_MOTION": 14.57110378, "ECCENTRICITY": 0.0001112, "INCLINATION": 98.2077, "RA_OF_ASC_NODE": 67.1183, "ARG_OF_PERICENTER": 93.3814, "MEAN_ANOMALY": 266.7512, "EPHEMERIS_TYPE": 0, "CLASSIFICATION_TYPE": "U", "NORAD_CAT_ID": 49260, "ELEMENT_SET_NO": 999, "REV_AT_EPOCH": 22566, "BSTAR": 0.00010891, "MEAN_MOTION_DOT": 4.45e-06, "MEAN_MOTION_DDOT": 0}, "tle": {"line1": "1 49260U 21088A   25359.18867420  .00000445  00000+0  10891-3 0  9994", "line2": "2 49260  98.2077  67.1183 0001112  93.3814 266.7512 14.57110378225662"}}, "geometry": {"type": "Point", "coordinates": [-92.41001015823406, 67.29593055746568]}}, {"type": "Feature", "properties": {"norad_id": 51444, "name": "CSG-2", "group": "resource", "lat": -14.460461501137999, "lon": -1.4317973334287548, "alt_km": 627.6219532816667, "timestamp": "2025-12-25T11:37:44.079528+00:00", "meta": {"OBJECT_NAME": "CSG-2", "OBJECT_ID": "2022-008A", "EPOCH": "2025-12-25T04:16:23.810304", "MEAN_MOTION": 14.82153741, "ECCENTRICITY": 0.0001449, "INCLINATION": 97.8804, "RA_OF_ASC_NODE": 180.3134, "ARG_OF_PERICENTER": 82.8577, "MEAN_ANOMALY": 277.2801, "EPHEMERIS_TYPE": 0, "CLASSIFICATION_TYPE": "U", "NORAD_CAT_ID": 51444, "ELEMENT_SET_NO": 999, "REV_AT_EPOCH": 21081, "BSTAR": -6.5283e-06, "MEAN_MOTION_DOT": -1.04e-06, "MEAN_MOTION_DDOT": 0}, "tle": {"line1": "1 51444U 22008A   25359.17805336 -.00000104  00000+0 -65283-5 0  9992", "line2": "2 51444  97.8804 180.3134 0001449  82.8577 277.2801 14.82153741210816"}}, "geometry": {"type": "Point", "coordinates": [-1.4317973334287548, -14.460461501137999]}}]}